STARLINK-32181          
1 60349U 24136W   26068.32722571 -.00000766  00000+0 -13738-4 0  9995
2 60349  53.1610  77.0184 0001207  95.4758 264.6381 15.30194267 89617
KUIPER-00175            
1 67135U 25301C   26068.97960463  .00019968  00000+0  66732-3 0  9998
2 67135  51.8781  63.6978 0002279  50.5695 309.5490 15.30996371 13854
